H1 CPF  1  MCC 2022 10 28 15  8011 larets
H2  0304206 5557    27944 2022 10 27 23 45 00 2022 11 01 23 57 00   180 1 1  0 0 0
H9
10 0 59882 79740.000000 0       208874.473     -1667960.837      6853688.929
10 0 59882 79920.000000 0      -503605.894     -2766100.951      6471674.003
10 0 59882 80100.000000 0     -1225051.220     -3744928.470      5852856.659
10 0 59882 80280.000000 0     -1925603.455     -4568882.594      5019625.526
10 0 59882 80460.000000 0     -2575244.882     -5208731.480      4002276.737
10 0 59882 80640.000000 0     -3145090.956     -5642674.009      2837959.768
10 0 59882 80820.000000 0     -3608680.587     -5857146.806      1569334.734
10 0 59882 81000.000000 0     -3943200.915     -5847294.908       242995.432
10 0 59882 81180.000000 0     -4130586.271     -5617079.410     -1092284.591
10 0 59882 81360.000000 0     -4158429.358     -5179008.155     -2387410.049
10 0 59882 81540.000000 0     -4020650.708     -4553496.107     -3594837.861
10 0 59882 81720.000000 0     -3717889.165     -3767894.078     -4670371.479
10 0 59882 81900.000000 0     -3257599.166     -2855249.498     -5574794.100
10 0 59882 82080.000000 0     -2653858.997     -1852869.003     -6275279.423
10 0 59882 82260.000000 0     -1926906.037      -800757.183     -6746535.845
10 0 59882 82440.000000 0     -1102422.713       259997.662     -6971654.968
10 0 59882 82620.000000 0      -210611.350      1288820.612     -6942651.607
10 0 59882 82800.000000 0       714908.566      2247178.011     -6660705.795
10 0 59882 82980.000000 0      1638351.101      3099996.239     -6136109.408
10 0 59882 83160.000000 0      2523130.877      3816933.423     -5387911.722
10 0 59882 83340.000000 0      3333297.213      4373460.071     -4443267.932
10 0 59882 83520.000000 0      4034989.216      4751717.417     -3336504.619
10 0 59882 83700.000000 0      4597857.751      4941117.879     -2107913.711
10 0 59882 83880.000000 0      4996387.999      4938653.535      -802305.513
10 0 59882 84060.000000 0      5211057.789      4748895.402       532629.648
10 0 59882 84240.000000 0      5229265.380      4383676.551      1848087.420
10 0 59882 84420.000000 0      5045983.969      3861477.937      3095964.989
10 0 59882 84600.000000 0      4664104.785      3206540.273      4230654.972
10 0 59882 84780.000000 0      4094445.551      2447749.798      5210729.578
10 0 59882 84960.000000 0      3355435.109      1617361.853      6000448.003
10 0 59882 85140.000000 0      2472486.723       749624.696      6571034.534
10 0 59882 85320.000000 0      1477101.136      -120632.907      6901684.417
10 0 59882 85500.000000 0       405736.189      -959387.679      6980289.097
10 0 59882 85680.000000 0      -701525.269     -1734742.877      6803865.192
10 0 59882 85860.000000 0     -1802464.389     -2418137.572      6378670.619
10 0 59882 86040.000000 0     -2854320.450     -2985401.073      5720009.804
10 0 59882 86220.000000 0     -3815448.945     -3417625.248      4851740.657
10 0 59883     0.000000 0     -4646997.996     -3701825.797      3805464.639
10 0 59883   180.000000 0     -5314518.426     -3831355.304      2619412.811
10 0 59883   360.000000 0     -5789441.129     -3806051.988      1337065.689
10 0 59883   540.000000 0     -6050349.417     -3632110.944         5540.071
10 0 59883   720.000000 0     -6083970.343     -3321674.406     -1326191.730
10 0 59883   900.000000 0     -5885826.772     -2892160.855     -2609172.221
10 0 59883  1080.000000 0     -5460506.735     -2365366.457     -3796324.450
10 0 59883  1260.000000 0     -4821545.461     -1766394.913     -4844221.007
10 0 59883  1440.000000 0     -3990935.011     -1122475.443     -5714683.084
10 0 59883  1620.000000 0     -2998293.062      -461730.374     -6376148.263
10 0 59883  1800.000000 0     -1879740.167       188046.197     -6804760.861
10 0 59883  1980.000000 0      -676542.651       800541.401     -6985164.048
10 0 59883  2160.000000 0       566419.780      1351966.876     -6910987.743
10 0 59883  2340.000000 0      1802310.536      1821961.729     -6585039.379
10 0 59883  2520.000000 0      2984078.860      2194331.283     -6019198.586
10 0 59883  2700.000000 0      4066232.784      2457599.098     -5234006.196
10 0 59883  2880.000000 0      5006582.635      2605354.746     -4257962.734
10 0 59883  3060.000000 0      5767902.593      2636388.617     -3126543.677
10 0 59883  3240.000000 0      6319438.001      2554605.129     -1880949.394
10 0 59883  3420.000000 0      6638194.016      2368716.326      -566623.221
10 0 59883  3600.000000 0      6709933.039      2091723.997       768415.785
10 0 59883  3780.000000 0      6529822.977      1740213.129      2075354.498
10 0 59883  3960.000000 0      6102706.594      1333495.680      3306403.016
10 0 59883  4140.000000 0      5442971.529       892644.830      4416574.866
10 0 59883  4320.000000 0      4574027.092       439472.629      5365344.131
10 0 59883  4500.000000 0      3527425.637        -4495.203      6118114.993
10 0 59883  4680.000000 0      2341670.084      -418999.768      6647454.496
10 0 59883  4860.000000 0      1060771.340      -785937.835      6934052.236
10 0 59883  5040.000000 0      -267391.944     -1090130.200      6967395.829
10 0 59883  5220.000000 0     -1592857.104     -1319940.653      6746140.020
10 0 59883  5400.000000 0     -2865440.702     -1467722.952      6278166.721
10 0 59883  5580.000000 0     -4036627.027     -1530079.326      5580342.126
10 0 59883  5760.000000 0     -5061436.393     -1507927.461      4677967.811
10 0 59883  5940.000000 0     -5900200.454     -1406370.608      3603913.644
10 0 59883  6120.000000 0     -6520162.131     -1234368.680      2397453.529
10 0 59883  6300.000000 0     -6896832.699     -1004225.374      1102841.610
10 0 59883  6480.000000 0     -7015035.847      -730913.287      -232337.690
10 0 59883  6660.000000 0     -6869563.757      -431267.924     -1558975.345
10 0 59883  6840.000000 0     -6465408.735      -123094.468     -2828310.989
10 0 59883  7020.000000 0     -5817562.769       175761.981     -3993785.132
10 0 59883  7200.000000 0     -4950394.226       448335.428     -5012789.938
10 0 59883  7380.000000 0     -3896641.212       679397.430     -5848231.602
10 0 59883  7560.000000 0     -2696088.714       856210.430     -6469848.277
10 0 59883  7740.000000 0     -1394002.225       969140.926     -6855246.150
10 0 59883  7920.000000 0       -39390.200      1012113.468     -6990638.595
10 0 59883  8100.000000 0      1316836.416       982889.675     -6871280.362
10 0 59883  8280.000000 0      2623752.716       883165.198     -6501609.512
10 0 59883  8460.000000 0      3832309.443       718483.157     -5895084.310
10 0 59883  8640.000000 0      4897156.561       497966.617     -5073718.427
10 0 59883  8820.000000 0      5778348.212       233879.264     -4067329.600
10 0 59883  9000.000000 0      6442872.393       -58969.691     -2912505.610
10 0 59883  9180.000000 0      6865937.517      -363954.870     -1651311.436
10 0 59883  9360.000000 0      7031957.166      -663466.598      -329770.487
10 0 59883  9540.000000 0      6935173.109      -939804.353      1003826.433
10 0 59883  9720.000000 0      6579882.633     -1176088.791      2300714.238
10 0 59883  9900.000000 0      5980252.683     -1357144.440      3513474.044
10 0 59883 10080.000000 0      5159725.917     -1470304.870      4597795.597
10 0 59883 10260.000000 0      4150058.908     -1506101.853      5514103.761
10 0 59883 10440.000000 0      2990044.870     -1458801.448      6228989.391
10 0 59883 10620.000000 0      1723984.512     -1326766.491      6716397.027
10 0 59883 10800.000000 0       399974.386     -1112632.849      6958537.520
10 0 59883 10980.000000 0      -931923.493      -823289.550      6946506.796
10 0 59883 11160.000000 0     -2221562.058      -469663.747      6680599.096
10 0 59883 11340.000000 0     -3420582.014       -66316.547      6170316.992
10 0 59883 11520.000000 0     -4484226.741       369140.028      5434075.759
10 0 59883 11700.000000 0     -5373043.999       816786.550      4498594.238
10 0 59883 11880.000000 0     -6054406.551      1255275.302      3397974.316
10 0 59883 12060.000000 0     -6503782.603      1662811.259      2172488.475
10 0 59883 12240.000000 0     -6705696.938      2018190.100       867110.081
10 0 59883 12420.000000 0     -6654328.691      2301842.550      -470168.243
10 0 59883 12600.000000 0     -6353699.677      2496827.306     -1790158.479
10 0 59883 12780.000000 0     -5817441.530      2589717.762     -3044354.301
10 0 59883 12960.000000 0     -5068152.177      2571335.842     -4186776.368
10 0 59883 13140.000000 0     -4136378.837      2437289.493     -5175692.573
10 0 59883 13320.000000 0     -3059296.429      2188292.172     -5975137.298
10 0 59883 13500.000000 0     -1879160.415      1830256.542     -6556179.518
10 0 59883 13680.000000 0      -641606.115      1374161.494     -6897910.711
10 0 59883 13860.000000 0       606128.676       835702.011     -6988127.959
10 0 59883 14040.000000 0      1816989.719       234741.533     -6823718.755
10 0 59883 14220.000000 0      2945857.673      -405418.496     -6410746.671
10 0 59883 14400.000000 0      3951206.840     -1058929.559     -5764231.358
10 0 59883 14580.000000 0      4796621.450     -1698418.389     -4907633.484
10 0 59883 14760.000000 0      5452127.370     -2296112.284     -3872054.107
10 0 59883 14940.000000 0      5895289.146     -2825026.099     -2695153.445
10 0 59883 15120.000000 0      6112023.251     -3260159.262     -1419813.423
10 0 59883 15300.000000 0      6097083.831     -3579647.575       -92583.953
10 0 59883 15480.000000 0      5854193.233     -3765813.194      1238029.469
10 0 59883 15660.000000 0      5395804.867     -3806058.259      2523370.351
10 0 59883 15840.000000 0      4742501.150     -3693548.853      3716448.140
10 0 59883 16020.000000 0      3922064.648     -3427654.504      4773678.716
10 0 59883 16200.000000 0      2968275.339     -3014127.380      5656482.334
99
